[{"OBJECT_NAME":"COSMOS 2528","OBJECT_ID":"2018-082A","EPOCH":"2026-03-09T23:25:00.782400","MEAN_MOTION":13.96701963,"ECCENTRICITY":0.0005856,"INCLINATION":67.1502,"RA_OF_ASC_NODE":318.8926,"ARG_OF_PERICENTER":289.9988,"MEAN_ANOMALY":70.0466,"EPHEMERIS_TYPE":0,"CLASSIFICATION_TYPE":"U","NORAD_CAT_ID":43657,"ELEMENT_SET_NO":999,"REV_AT_EPOCH":37609,"BSTAR":4.2400253e-5,"MEAN_MOTION_DOT":-1.6e-7,"MEAN_MOTION_DDOT":0},{"OBJECT_NAME":"FENGYUN 1C DEB","OBJECT_ID":"1999-025QG","EPOCH":"2026-03-09T23:49:19.054560","MEAN_MOTION":14.0084595,"ECCENTRICITY":0.00867949,"INCLINATION":99.013,"RA_OF_ASC_NODE":128.4754,"ARG_OF_PERICENTER":59.1883,"MEAN_ANOMALY":60.9717,"EPHEMERIS_TYPE":0,"CLASSIFICATION_TYPE":"U","NORAD_CAT_ID":30079,"ELEMENT_SET_NO":999,"REV_AT_EPOCH":97759,"BSTAR":0.00018113934,"MEAN_MOTION_DOT":2.36e-6,"MEAN_MOTION_DDOT":0}]
